OBJECT_NAME,OBJECT_ID,EPOCH,MEAN_MOTION,ECCENTRICITY,INCLINATION,RA_OF_ASC_NODE,ARG_OF_PERICENTER,MEAN_ANOMALY,EPHEMERIS_TYPE,CLASSIFICATION_TYPE,NORAD_CAT_ID,ELEMENT_SET_NO,REV_AT_EPOCH,BSTAR,MEAN_MOTION_DOT,MEAN_MOTION_DDOT
STARLINK-37803,2026-119Z,2026-06-09T04:00:03.000096,15.80887945,.000084,97.2834,185.5888,82.9386,4.5089,0,U,69319,999,271,-.73227E-3,-.138651E-2,0
GUOWANG TEST OBJECT A,2026-120A,2026-06-07T11:06:12.288672,15.38803685,.00095994,54.9967,71.5399,294.3963,65.6063,0,U,69320,999,119,.24095813E-3,.9002E-4,0
GUOWANG TEST OBJECT B,2026-120B,2026-06-04T06:41:24.658368,15.39121370,.00091004,55.0006,85.8667,296.4175,63.5919,0,U,69321,999,70,.6938966E-3,.27005E-3,0
GUOWANG TEST OBJECT C,2026-120C,2026-06-07T00:06:59.203296,15.39521743,.00095552,54.9981,73.5721,307.3825,52.6333,0,U,69322,999,112,.45417396E-3,.17755E-3,0
GUOWANG TEST OBJECT D,2026-120D,2026-06-04T15:59:40.712352,15.39704502,.00080029,55.0029,84.1123,301.7889,58.2360,0,U,69323,999,76,.80800046E-3,.32137E-3,0
QIANFAN-163,2026-121A,2026-06-07T22:57:09.245664,13.60351269,.0019204,89.0164,301.4499,214.2612,145.7307,0,U,69325,999,90,.26363E-4,.32E-6,0
QIANFAN-164,2026-121B,2026-06-09T03:10:36.039648,13.60504712,.0018708,89.0161,301.3300,211.9455,148.0569,0,U,69326,999,106,.14771E-3,.123E-5,0
SZ-22 MODULE,2025-272C,2026-06-08T23:33:34.310304,15.59890497,.0007514,41.4813,11.9816,18.7303,341.3811,0,U,69328,999,204,.24872E-3,.20338E-3,0
